[{"OBJECT_NAME":"OBJECT D","OBJECT_ID":"2024-153D","EPOCH":"2026-03-09T23:34:15.763296","MEAN_MOTION":15.24738931,"ECCENTRICITY":0.00026819,"INCLINATION":97.6632,"RA_OF_ASC_NODE":204.2425,"ARG_OF_PERICENTER":164.3,"MEAN_ANOMALY":195.8321,"EPHEMERIS_TYPE":0,"CLASSIFICATION_TYPE":"U","NORAD_CAT_ID":60748,"ELEMENT_SET_NO":999,"REV_AT_EPOCH":8471,"BSTAR":0.00086014823,"MEAN_MOTION_DOT":0.00021266,"MEAN_MOTION_DDOT":0},{"OBJECT_NAME":"ION SCV-017","OBJECT_ID":"2025-052W","EPOCH":"2026-03-09T17:11:44.577024","MEAN_MOTION":15.26881798,"ECCENTRICITY":0.0023746,"INCLINATION":97.4016,"RA_OF_ASC_NODE":324.7516,"ARG_OF_PERICENTER":44.9875,"MEAN_ANOMALY":315.3282,"EPHEMERIS_TYPE":0,"CLASSIFICATION_TYPE":"U","NORAD_CAT_ID":63230,"ELEMENT_SET_NO":999,"REV_AT_EPOCH":5485,"BSTAR":0.00024539061,"MEAN_MOTION_DOT":6.457e-5,"MEAN_MOTION_DDOT":0}]
